ONEWEB-0545             
1 54647U 22166F   25037.75732521  .00000023  00000+0  23447-4 0  9990
2 54647  87.9339 342.7257 0001184  84.7050 275.4219 13.21826184106525
ONEWEB-0580             
1 54648U 22166G   25037.80620343  .00000090  00000+0  18661-3 0  9990
2 54648  87.9347 342.7022 0001474  72.9847 287.1448 13.21824780106568
ONEWEB-0582             
1 54649U 22166H   25037.77309873  .00000052  00000+0  95249-4 0  9995
2 54649  87.9326 342.7386 0001305  66.8275 293.2996 13.21825546106544
ONEWEB-0583             
1 54650U 22166J   25037.85983696  .00000069  00000+0  13521-3 0  9997
2 54650  87.9341 342.7179 0001704  81.2546 278.8781 13.21825951106572
ONEWEB-0584             
1 54651U 22166K   25037.80463663  .00000095  00000+0  19921-3 0  9999
2 54651  87.9348 342.7066 0001529  68.0550 292.0746 13.21825590106543
ONEWEB-0585             
1 54652U 22166L   25037.37568583  .00000022  00000+0  21099-4 0  9999
2 54652  87.9336 342.7929 0001919  79.5161 280.6189 13.21825817106497
ONEWEB-0586             
1 54653U 22166M   25037.38829245  .00000046  00000+0  80315-4 0  9998
2 54653  87.9342 342.8034 0001634  79.1153 281.0164 13.21824018106494
ONEWEB-0587             
1 54654U 22166N   25037.77624180  .00000094  00000+0  19524-3 0  9999
2 54654  87.9341 342.6779 0002015  81.1379 278.9983 13.21826512106692
